NOAA 19                 
1 33591U 09005A   23025.82456876  .00000261  00000+0  16553-3 0  9994
2 33591  99.1218  69.3397 0012969 284.1863  75.7867 14.12675005719580
